{
  "last_updated": "2026-05-19T06:00:03.091853",
  "satellites": {
    "98592": {
      "name": "DUTHSat-2",
      "norad_id": "98592",
      "tle": "1 64530U 25135C   26138.30429895  .00006962  00000-0  27239-3 0  9993\n2 64530  97.4593 254.2504 0003332 297.3793  62.7106 15.26143226 50379",
      "epoch": "2026-05-18T07:18:11.429280",
      "fetched_at": "2026-05-19T06:00:03.198023",
      "source": "satnogs"
    },
    "98530": {
      "name": "LAMARR",
      "norad_id": "98530",
      "tle": "1 66673U 25276H   26026.90917087  .00034524  00000-0  16680-2 0  9998\n2 66673  97.4301 102.8338 0007597 141.5941 218.5835 15.18529012  8972",
      "epoch": "2026-01-26T21:49:12.363168",
      "fetched_at": "2026-01-28T06:00:02.884758",
      "source": "satnogs",
      "note": "Using previous TLE (fetch/manual failed today)"
    },
    "98529": {
      "name": "DIRAC",
      "norad_id": "98529",
      "tle": "1 66681U 25276R   26026.63281774  .00024563  00000-0  11745-2 0  9993\n2 66681  97.4280 102.5712 0006320 148.4115 211.7500 15.18972786  8932",
      "epoch": "2026-01-26T15:11:15.452736",
      "fetched_at": "2026-01-28T06:00:02.937152",
      "source": "satnogs",
      "note": "Using previous TLE (fetch/manual failed today)"
    },
    "98518": {
      "name": "MICE-1",
      "norad_id": "98518",
      "tle": "1 66684U 25276U   26138.66874091  .00002332  00000-0  11481-3 0  9991\n2 66684  97.4275 212.7924 0007203  97.3756 262.8297 15.18953689 25932",
      "epoch": "2026-05-18T16:02:59.214624",
      "fetched_at": "2026-05-19T06:00:03.344200",
      "source": "satnogs"
    },
    "68416": {
      "name": "PeakSat",
      "norad_id": "68416",
      "tle": "1 68416U 26067A   26138.45347174  .00004149  00000-0  20114-3 0  9990\n2 68416  97.4536  97.4173 0003407  53.4170 306.7378 15.19064030  7433",
      "epoch": "2026-05-18T10:52:59.958336",
      "fetched_at": "2026-05-19T06:00:03.392295",
      "source": "satnogs"
    },
    "98370": {
      "name": "OptiSat",
      "norad_id": "98370",
      "tle": "1 69696U 69696    26089.46895426  .00000000  00000-0  00000-0 0 00004\n2 69696 097.4414 038.3720 0003145 156.7651 191.1423 15.18459822000011",
      "epoch": "2026-03-30T11:15:17.648064",
      "fetched_at": "2026-04-17T12:47:18.541523",
      "source": "manual"
    },
    "68468": {
      "name": "ERMIS-1",
      "norad_id": "68468",
      "tle": "1 68468U 26067BE  26138.45045129  .00004991  00000-0  25453-3 0  9998\n2 68468  97.4544  97.2782 0007871 144.3756 215.8004 15.17174417  7426",
      "epoch": "2026-05-18T10:48:38.991456",
      "fetched_at": "2026-05-19T06:00:03.441706",
      "source": "satnogs"
    },
    "68420": {
      "name": "ERMIS-2",
      "norad_id": "68420",
      "tle": "1 68420U 26067E   26138.45387360  .00005701  00000-0  27431-3 0  9990\n2 68420  97.4472  97.3803 0002641  57.3105 302.8384 15.19171035  7434",
      "epoch": "2026-05-18T10:53:34.679040",
      "fetched_at": "2026-05-19T06:00:03.494721",
      "source": "satnogs"
    },
    "98367": {
      "name": "ERMIS-3",
      "norad_id": "98367",
      "tle": "1 68425U 26067K   26138.86554724  .00003299  00000-0  16336-3 0  9992\n2 68425  97.4578  97.8122 0003517  82.9871 277.1763 15.18467978  7496",
      "epoch": "2026-05-18T20:46:23.281536",
      "fetched_at": "2026-05-19T06:00:03.543146",
      "source": "satnogs"
    },
    "69021": {
      "name": "Helios",
      "norad_id": "69021",
      "tle": "1 69021U 26100AT  26138.94024003  .00004724  00000-0  22502-3 0  9990\n2 69021  97.4055  37.2662 0006793  90.3380 269.8633 15.19588156  2361",
      "epoch": "2026-05-18T22:33:56.738592",
      "fetched_at": "2026-05-19T06:00:03.607385",
      "source": "satnogs"
    },
    "69020": {
      "name": "Selene",
      "norad_id": "69020",
      "tle": "1 69020U 26100AS  26138.87538426  .00004746  00000-0  22674-3 0  9994\n2 69020  97.4070  37.2065 0006199  85.7743 274.4200 15.19488728  2350",
      "epoch": "2026-05-18T21:00:33.200064",
      "fetched_at": "2026-05-19T06:00:03.663355",
      "source": "satnogs"
    }
  },
  "fetch_log": []
}